NORAD_CAT_ID,OBJECT_NAME,OBJECT_TYPE,EPOCH,MEAN_MOTION,ECCENTRICITY,INCLINATION,RA_OF_ASC_NODE,ARG_OF_PERICENTER,MEAN_ANOMALY,BSTAR,MEAN_MOTION_DOT,MEAN_MOTION_DDOT,TLE_LINE0,TLE_LINE1,TLE_LINE2,SEMIMAJOR_AXIS,PERIOD,APOGEE,PERIGEE,DECAYED
51898.0,STARLINK-3597,PAYLOAD,2023-10-21 07:56:54,15.08840867,0.0001806,53.2171,306.3146,97.3969,262.7228,0.00010207,1.337e-05,0.0,0 STARLINK-3597,1 51898U 22022AY  23294.33118758  .00001337  00000-0  10207-3 0  9992,2 51898  53.2171 306.3146 0001806  97.3969 262.7228 15.08840867 91908,6917.878,95.437,540.992,538.493,0.0
51898.0,STARLINK-3597,PAYLOAD,2023-10-22 09:23:04,15.08844085,0.0001733,53.2174,301.5568,100.3562,259.7626,0.00017227,2.455e-05,0.0,0 STARLINK-3597,1 51898U 22022AY  23295.39102759  .00002455  00000-0  17227-3 0  9994,2 51898  53.2174 301.5568 0001733 100.3562 259.7626 15.08844085 92061,6917.868,95.437,540.932,538.534,0.0
51898.0,STARLINK-3597,PAYLOAD,2023-10-22 17:20:00,15.08836727,0.0001694,53.2173,300.0697,93.9424,266.1762,2.2993e-05,7.8e-07,0.0,0 STARLINK-3597,1 51898U 22022AY  23295.72223005  .00000078  00000-0  22993-4 0  9995,2 51898  53.2173 300.0697 0001694  93.9424 266.1762 15.08836727 92110,6917.89,95.438,540.927,538.584,0.0
51898.0,STARLINK-3597,PAYLOAD,2023-10-23 04:27:43,15.08833591,0.000178,53.2179,297.9891,96.3427,263.7768,3.1476e-06,-2.38e-06,0.0,0 STARLINK-3597,1 51898U 22022AY  23296.18591544 -.00000238  00000-0  31476-5 0  9998,2 51898  53.2179 297.9891 0001780  96.3427 263.7768 15.08833591 92184,6917.9,95.438,540.996,538.534,0.0
51898.0,STARLINK-3597,PAYLOAD,2023-10-23 17:10:48,15.08837208,0.000178,53.2182,295.61,93.9516,266.168,4.898e-05,4.91e-06,0.0,0 STARLINK-3597,1 51898U 22022AY  23296.71583487  .00000491  00000-0  48980-4 0  9991,2 51898  53.2182 295.6100 0001780  93.9516 266.1680 15.08837208 92266,6917.889,95.438,540.985,538.523,0.0
51898.0,STARLINK-3597,PAYLOAD,2023-10-24 04:18:29,15.08844874,0.0001815,53.2187,293.5282,99.8509,260.2688,0.00014823,2.072e-05,0.0,0 STARLINK-3597,1 51898U 22022AY  23297.17951138  .00002072  00000-0  14823-3 0  9999,2 51898  53.2187 293.5282 0001815  99.8509 260.2688 15.08844874 92333,6917.865,95.437,540.986,538.475,0.0
51898.0,STARLINK-3597,PAYLOAD,2023-10-24 09:04:38,15.08849808,0.0001725,53.2186,292.6354,90.8016,269.3174,0.00016729,2.376e-05,0.0,0 STARLINK-3597,1 51898U 22022AY  23297.37822813  .00002376  00000-0  16729-3 0  9992,2 51898  53.2186 292.6354 0001725  90.8016 269.3174 15.08849808 92361,6917.85,95.437,540.909,538.522,0.0
51898.0,STARLINK-3597,PAYLOAD,2023-10-25 08:55:26,15.08843428,0.0001575,53.2163,288.173,91.2406,268.8766,0.00015787,2.226e-05,0.0,0 STARLINK-3597,1 51898U 22022AY  23298.37183333  .00002226  00000-0  15787-3 0  9997,2 51898  53.2163 288.1730 0001575  91.2406 268.8766 15.08843428 92515,6917.87,95.437,540.824,538.645,0.0
51898.0,STARLINK-3597,PAYLOAD,2023-10-26 08:46:12,15.08851244,0.0001638,53.2165,283.711,96.9173,263.2005,0.00015416,2.167e-05,0.0,0 STARLINK-3597,1 51898U 22022AY  23299.36542815  .00002167  00000-0  15416-3 0  9994,2 51898  53.2165 283.7110 0001638  96.9173 263.2005 15.08851244 92669,6917.846,95.437,540.844,538.578,0.0
51898.0,STARLINK-3597,PAYLOAD,2023-10-26 16:43:08,15.08851039,0.000157,53.2162,282.2248,96.1013,264.0158,0.00014914,2.087e-05,0.0,0 STARLINK-3597,1 51898U 22022AY  23299.69662719  .00002087  00000-0  14914-3 0  9999,2 51898  53.2162 282.2248 0001570  96.1013 264.0158 15.08851039 92718,6917.847,95.437,540.798,538.626,0.0
51898.0,STARLINK-3597,PAYLOAD,2023-10-27 05:26:13,15.08853616,0.0001627,53.216,279.846,100.7187,259.3989,0.00027379,4.074e-05,0.0,0 STARLINK-3597,1 51898U 22022AY  23300.22654527  .00004074  00000-0  27379-3 0  9996,2 51898  53.2160 279.8460 0001627 100.7187 259.3989 15.08853616 92791,6917.839,95.437,540.829,538.578,0.0
51898.0,STARLINK-3597,PAYLOAD,2023-10-27 08:36:59,15.08855815,0.0001798,53.2167,279.2497,104.4524,255.6667,0.00029072,4.344e-05,0.0,0 STARLINK-3597,1 51898U 22022AY  23300.35902374  .00004344  00000-0  29072-3 0  9998,2 51898  53.2167 279.2497 0001798 104.4524 255.6667 15.08855815 92815,6917.832,95.437,540.941,538.453,0.0
51898.0,STARLINK-3597,PAYLOAD,2023-10-27 22:55:28,15.08838025,0.0002005,53.216,276.574,98.7388,261.3831,-2.9222e-05,-7.53e-06,0.0,0 STARLINK-3597,1 51898U 22022AY  23300.95519148 -.00000753  00000-0 -29222-4 0  9997,2 51898  53.2160 276.5740 0002005  98.7388 261.3831 15.08838025 92905,6917.886,95.438,541.138,538.364,0.0
51898.0,STARLINK-3597,PAYLOAD,2023-10-28 08:27:47,15.08835783,0.0001582,53.2162,274.7905,91.2566,268.8607,-2.7414e-05,-7.24e-06,0.0,0 STARLINK-3597,1 51898U 22022AY  23301.35263332 -.00000724  00000-0 -27414-4 0  9992,2 51898  53.2162 274.7905 0001582  91.2566 268.8607 15.08835783 92962,6917.893,95.438,540.853,538.664,0.0
51898.0,STARLINK-3597,PAYLOAD,2023-10-28 22:46:16,15.08835567,0.0001485,53.2158,272.1145,93.2312,266.885,4.5799e-05,4.41e-06,0.0,0 STARLINK-3597,1 51898U 22022AY  23301.94879682  .00000441  00000-0  45799-4 0  9998,2 51898  53.2158 272.1145 0001485  93.2312 266.8850 15.08835567 93057,6917.894,95.438,540.786,538.732,0.0
51898.0,STARLINK-3597,PAYLOAD,2023-10-29 05:07:48,15.08848262,0.0001493,53.2159,270.9271,95.1416,264.9747,0.00027835,4.146e-05,0.0,0 STARLINK-3597,1 51898U 22022AY  23302.21375205  .00004146  00000-0  27835-3 0  9997,2 51898  53.2159 270.9271 0001493  95.1416 264.9747 15.08848262 93093,6917.855,95.437,540.753,538.687,0.0
51898.0,STARLINK-3597,PAYLOAD,2023-10-29 08:18:34,15.08853498,0.0001516,53.216,270.3317,94.9515,265.165,0.00040916,6.232e-05,0.0,0 STARLINK-3597,1 51898U 22022AY  23302.34622934  .00006232  00000-0  40916-3 0  9998,2 51898  53.2160 270.3317 0001516  94.9515 265.1650 15.08853498 93119,6917.839,95.437,540.753,538.655,0.0
51898.0,STARLINK-3597,PAYLOAD,2023-10-30 03:23:12,15.08842591,0.0001501,53.2164,266.7612,87.7412,272.3752,0.00024166,3.56e-05,0.0,0 STARLINK-3597,1 51898U 22022AY  23303.14111742  .00003560  00000-0  24166-3 0  9997,2 51898  53.2164 266.7612 0001501  87.7412 272.3752 15.08842591 93238,6917.872,95.437,540.776,538.699,0.0
51898.0,STARLINK-3597,PAYLOAD,2023-10-30 14:30:54,15.08834742,0.0001536,53.2168,264.6793,91.5477,268.5691,3.0953e-07,-2.83e-06,0.0,0 STARLINK-3597,1 51898U 22022AY  23303.60479842 -.00000283  00000-0  30953-6 0  9990,2 51898  53.2168 264.6793 0001536  91.5477 268.5691 15.08834742 93307,6917.896,95.438,540.824,538.699,0.0
51898.0,STARLINK-3597,PAYLOAD,2023-10-31 04:49:23,15.08840177,0.0001509,53.2174,262.0055,93.7177,266.3987,0.0004074,6.202e-05,0.0,0 STARLINK-3597,1 51898U 22022AY  23304.20096111  .00006202  00000-0  40740-3 0  9999,2 51898  53.2174 262.0055 0001509  93.7177 266.3987 15.08840177 93390,6917.88,95.438,540.789,538.701,0.0
51898.0,STARLINK-3597,PAYLOAD,2023-11-01 04:40:10,15.08837953,0.0001358,53.2186,257.5437,110.2432,249.8706,0.00022652,3.319e-05,0.0,0 STARLINK-3597,1 51898U 22022AY  23305.19456266  .00003319  00000-0  22652-3 0  9997,2 51898  53.2186 257.5437 0001358 110.2432 249.8706 15.08837953 93547,6917.887,95.438,540.691,538.812,0.0
51898.0,STARLINK-3597,PAYLOAD,2023-11-01 06:15:32,15.08854174,0.0001272,53.2186,257.2461,95.5169,264.5968,0.00054218,8.355e-05,0.0,0 STARLINK-3597,1 51898U 22022AY  23305.26079759  .00008355  00000-0  54218-3 0  9991,2 51898  53.2186 257.2461 0001272  95.5169 264.5968 15.08854174 93557,6917.837,95.437,540.582,538.822,0.0
51898.0,STARLINK-3597,PAYLOAD,2023-11-01 14:12:29,15.08839561,0.0001814,53.2186,255.7601,85.919,274.2009,0.0001555,2.188e-05,0.0,0 STARLINK-3597,1 51898U 22022AY  23305.59200446  .00002188  00000-0  15550-3 0  9990,2 51898  53.2186 255.7601 0001814  85.9190 274.2009 15.08839561 93608,6917.882,95.438,541.002,538.492,0.0
51898.0,STARLINK-3597,PAYLOAD,2023-11-01 20:34:01,15.08832097,0.0001282,53.2186,254.5711,86.351,273.7629,-3.1654e-05,-7.91e-06,0.0,0 STARLINK-3597,1 51898U 22022AY  23305.85696608 -.00000791  00000-0 -31654-4 0  9992,2 51898  53.2186 254.5711 0001282  86.3510 273.7629 15.08832097 93640,6917.905,95.438,540.656,538.883,0.0
51898.0,STARLINK-3597,PAYLOAD,2023-11-02 02:55:33,15.0884823,0.0001667,53.2182,253.3824,97.2081,262.9101,0.00026113,3.871e-05,0.0,0 STARLINK-3597,1 51898U 22022AY  23306.12192078  .00003871  00000-0  26113-3 0  9998,2 51898  53.2182 253.3824 0001667  97.2081 262.9101 15.08848230 93684,6917.855,95.437,540.873,538.567,0.0
51898.0,STARLINK-3597,PAYLOAD,2023-11-02 14:03:15,15.08850354,0.0001799,53.2182,251.3003,85.6497,274.4701,0.00031157,4.675e-05,0.0,0 STARLINK-3597,1 51898U 22022AY  23306.58560166  .00004675  00000-0  31157-3 0  9992,2 51898  53.2182 251.3003 0001799  85.6497 274.4701 15.08850354 93751,6917.849,95.437,540.958,538.469,0.0
51898.0,STARLINK-3597,PAYLOAD,2023-11-02 20:24:48,15.08845672,0.0001749,53.2167,250.1118,91.6846,268.4346,0.0002346,3.448e-05,0.0,0 STARLINK-3597,1 51898U 22022AY  23306.85056166  .00003448  00000-0  23460-3 0  9997,2 51898  53.2167 250.1118 0001749  91.6846 268.4346 15.08845672 93797,6917.863,95.437,540.938,538.518,0.0
51898.0,STARLINK-3597,PAYLOAD,2023-11-03 05:57:06,15.08856609,0.0001736,53.2168,248.3257,100.1282,259.9906,0.0004166,6.351e-05,0.0,0 STARLINK-3597,1 51898U 22022AY  23307.24799611  .00006351  00000-0  41660-3 0  9998,2 51898  53.2168 248.3257 0001736 100.1282 259.9906 15.08856609 93853,6917.83,95.437,540.896,538.494,0.0
51898.0,STARLINK-3597,PAYLOAD,2023-11-04 02:37:07,15.08847567,0.0001517,53.2167,244.4619,90.921,269.1956,0.0002484,3.668e-05,0.0,0 STARLINK-3597,1 51898U 22022AY  23308.10911967  .00003668  00000-0  24840-3 0  9993,2 51898  53.2167 244.4619 0001517  90.9210 269.1956 15.08847567 93980,6917.857,95.437,540.772,538.673,0.0
51898.0,STARLINK-3597,PAYLOAD,2023-11-04 05:47:54,15.0885086,0.0001475,53.2163,243.866,90.4724,269.6438,0.00042354,6.461e-05,0.0,0 STARLINK-3597,1 51898U 22022AY  23308.24159843  .00006461  00000-0  42354-3 0  9999,2 51898  53.2163 243.8660 0001475  90.4724 269.6438 15.08850860 94007,6917.847,95.437,540.733,538.692,0.0
